STARLINK-34881          
1 65347U 25189AA  26019.42749788  .00031510  00000+0  10713-2 0  9990
2 65347  53.1590  75.6246 0001507  92.9739 267.1434 15.30205934 23578
STARLINK-34859          
1 65348U 25189AB  26019.43699245  .00017857  00000+0  61350-3 0  9996
2 65348  53.1573  75.6826 0001210  80.7965 279.3173 15.30204172 23568
STARLINK-34895          
1 65349U 25189AC  26019.42222229  .00028182  00000+0  95990-3 0  9990
2 65349  53.1598  75.5913 0001553  84.0497 276.0680 15.30204146 23523
STARLINK-34892          
1 65350U 25189AD  26019.53596498  .00021872  00000+0  74817-3 0  9990
2 65350  53.1601  74.8780 0001159  80.3366 279.7766 15.30210576 23530
STARLINK-34244          
1 65351U 25190A   26019.77452219  .00025722  00000+0  87825-3 0  9992
2 65351  53.1598  35.5828 0001318  83.0986 277.0165 15.30174818 22269
STARLINK-34716          
1 65352U 25190B   26019.75975056  .00027852  00000+0  94872-3 0  9996
2 65352  53.1612  35.4672 0001713  84.5621 275.5575 15.30208876 22264
STARLINK-34828          
1 65353U 25190C   26019.99462487  .00026656  00000+0  90864-3 0  9990
2 65353  53.1572  34.0861 0001225  93.8094 266.3047 15.30208740 22307
STARLINK-34785          
1 65354U 25190D   26019.32576101  .00024017  00000+0  82009-3 0  9998
2 65354  53.1603  37.7379 0001373  92.3285 267.7873 15.30211869 21720
STARLINK-34823          
1 65355U 25190E   26019.75024776  .00014887  00000+0  51374-3 0  9997
2 65355  53.1599  35.4062 0000891 157.5122 202.5918 15.30200435 22261
STARLINK-34680          
1 65356U 25190F   26019.33103450  .00015447  00000+0  53258-3 0  9995
2 65356  53.1577  37.7644 0001193  86.2272 273.8866 15.30200725 21724
STARLINK-34860          
1 65357U 25190G   26019.76397002  .00017774  00000+0  61060-3 0  9996
2 65357  53.1598  35.4947 0001435  88.5686 271.5479 15.30210644 21795
STARLINK-34782          
1 65358U 25190H   26019.33619770  .00018722  00000+0  64246-3 0  9992
2 65358  53.1576  37.0891 0001069  91.9077 268.2046 15.30208677 22206
STARLINK-34760          
1 65359U 25190J   26019.73969835  .00019908  00000+0  68252-3 0  9995
2 65359  53.1582  35.3371 0001394  85.3302 274.7858 15.30197459 21798
STARLINK-34826          
1 65360U 25190K   26019.77239749  .00048394  00000+0  16327-2 0  9991
2 65360  53.1612  35.5451 0001264  90.6862 269.4283 15.30254779 21793
STARLINK-34800          
1 65361U 25190L   26019.33514178  .00023144  00000+0  79107-3 0  9998
2 65361  53.1570  37.0779 0001107  88.3425 271.7703 15.30200900 21736
STARLINK-34817          
1 65362U 25190M   26019.46060890  .00032162  00000+0  10932-2 0  9990
2 65362  53.1592  37.1505 0001290  87.6312 272.4836 15.30203089 22219
