[{"OBJECT_NAME":"STARLINK-34881","OBJECT_ID":"2025-189AA","EPOCH":"2026-01-19T10:15:35.816832","MEAN_MOTION":15.30205934,"ECCENTRICITY":0.00015076,"INCLINATION":53.159,"RA_OF_ASC_NODE":75.6246,"ARG_OF_PERICENTER":92.9739,"MEAN_ANOMALY":267.1434,"EPHEMERIS_TYPE":0,"CLASSIFICATION_TYPE":"U","NORAD_CAT_ID":65347,"ELEMENT_SET_NO":999,"REV_AT_EPOCH":2357,"BSTAR":0.0010713061,"MEAN_MOTION_DOT":0.0003151,"MEAN_MOTION_DDOT":0},{"OBJECT_NAME":"STARLINK-34859","OBJECT_ID":"2025-189AB","EPOCH":"2026-01-19T10:29:16.147680","MEAN_MOTION":15.30204172,"ECCENTRICITY":0.00012105,"INCLINATION":53.1573,"RA_OF_ASC_NODE":75.6826,"ARG_OF_PERICENTER":80.7965,"MEAN_ANOMALY":279.3173,"EPHEMERIS_TYPE":0,"CLASSIFICATION_TYPE":"U","NORAD_CAT_ID":65348,"ELEMENT_SET_NO":999,"REV_AT_EPOCH":2356,"BSTAR":0.00061349502,"MEAN_MOTION_DOT":0.00017857,"MEAN_MOTION_DDOT":0},{"OBJECT_NAME":"STARLINK-34895","OBJECT_ID":"2025-189AC","EPOCH":"2026-01-19T10:08:00.005856","MEAN_MOTION":15.30204146,"ECCENTRICITY":0.00015538,"INCLINATION":53.1598,"RA_OF_ASC_NODE":75.5913,"ARG_OF_PERICENTER":84.0497,"MEAN_ANOMALY":276.068,"EPHEMERIS_TYPE":0,"CLASSIFICATION_TYPE":"U","NORAD_CAT_ID":65349,"ELEMENT_SET_NO":999,"REV_AT_EPOCH":2352,"BSTAR":0.00095989582,"MEAN_MOTION_DOT":0.00028182,"MEAN_MOTION_DDOT":0},{"OBJECT_NAME":"STARLINK-34892","OBJECT_ID":"2025-189AD","EPOCH":"2026-01-19T12:51:47.374272","MEAN_MOTION":15.30210576,"ECCENTRICITY":0.00011591,"INCLINATION":53.1601,"RA_OF_ASC_NODE":74.878,"ARG_OF_PERICENTER":80.3366,"MEAN_ANOMALY":279.7766,"EPHEMERIS_TYPE":0,"CLASSIFICATION_TYPE":"U","NORAD_CAT_ID":65350,"ELEMENT_SET_NO":999,"REV_AT_EPOCH":2353,"BSTAR":0.00074816816,"MEAN_MOTION_DOT":0.00021872,"MEAN_MOTION_DDOT":0},{"OBJECT_NAME":"STARLINK-34244","OBJECT_ID":"2025-190A","EPOCH":"2026-01-19T18:35:18.717216","MEAN_MOTION":15.30174818,"ECCENTRICITY":0.00013185,"INCLINATION":53.1598,"RA_OF_ASC_NODE":35.5828,"ARG_OF_PERICENTER":83.0986,"MEAN_ANOMALY":277.0165,"EPHEMERIS_TYPE":0,"CLASSIFICATION_TYPE":"U","NORAD_CAT_ID":65351,"ELEMENT_SET_NO":999,"REV_AT_EPOCH":2226,"BSTAR":0.00087824669,"MEAN_MOTION_DOT":0.00025722,"MEAN_MOTION_DDOT":0},{"OBJECT_NAME":"STARLINK-34716","OBJECT_ID":"2025-190B","EPOCH":"2026-01-19T18:14:02.448384","MEAN_MOTION":15.30208876,"ECCENTRICITY":0.00017131,"INCLINATION":53.1612,"RA_OF_ASC_NODE":35.4672,"ARG_OF_PERICENTER":84.5621,"MEAN_ANOMALY":275.5575,"EPHEMERIS_TYPE":0,"CLASSIFICATION_TYPE":"U","NORAD_CAT_ID":65352,"ELEMENT_SET_NO":999,"REV_AT_EPOCH":2226,"BSTAR":0.00094872313,"MEAN_MOTION_DOT":0.00027852,"MEAN_MOTION_DDOT":0},{"OBJECT_NAME":"STARLINK-34828","OBJECT_ID":"2025-190C","EPOCH":"2026-01-19T23:52:15.588768","MEAN_MOTION":15.3020874,"ECCENTRICITY":0.00012258,"INCLINATION":53.1572,"RA_OF_ASC_NODE":34.0861,"ARG_OF_PERICENTER":93.8094,"MEAN_ANOMALY":266.3047,"EPHEMERIS_TYPE":0,"CLASSIFICATION_TYPE":"U","NORAD_CAT_ID":65353,"ELEMENT_SET_NO":999,"REV_AT_EPOCH":2230,"BSTAR":0.0009086447,"MEAN_MOTION_DOT":0.00026656,"MEAN_MOTION_DDOT":0},{"OBJECT_NAME":"STARLINK-34785","OBJECT_ID":"2025-190D","EPOCH":"2026-01-19T07:49:05.751264","MEAN_MOTION":15.30211869,"ECCENTRICITY":0.00013739,"INCLINATION":53.1603,"RA_OF_ASC_NODE":37.7379,"ARG_OF_PERICENTER":92.3285,"MEAN_ANOMALY":267.7873,"EPHEMERIS_TYPE":0,"CLASSIFICATION_TYPE":"U","NORAD_CAT_ID":65354,"ELEMENT_SET_NO":999,"REV_AT_EPOCH":2172,"BSTAR":0.00082009425,"MEAN_MOTION_DOT":0.00024017,"MEAN_MOTION_DDOT":0},{"OBJECT_NAME":"STARLINK-34823","OBJECT_ID":"2025-190E","EPOCH":"2026-01-19T18:00:21.406464","MEAN_MOTION":15.30200435,"ECCENTRICITY":8.913e-5,"INCLINATION":53.1599,"RA_OF_ASC_NODE":35.4062,"ARG_OF_PERICENTER":157.5122,"MEAN_ANOMALY":202.5918,"EPHEMERIS_TYPE":0,"CLASSIFICATION_TYPE":"U","NORAD_CAT_ID":65355,"ELEMENT_SET_NO":999,"REV_AT_EPOCH":2226,"BSTAR":0.00051373754,"MEAN_MOTION_DOT":0.00014887,"MEAN_MOTION_DDOT":0},{"OBJECT_NAME":"STARLINK-34680","OBJECT_ID":"2025-190F","EPOCH":"2026-01-19T07:56:41.380800","MEAN_MOTION":15.30200725,"ECCENTRICITY":0.0001193,"INCLINATION":53.1577,"RA_OF_ASC_NODE":37.7644,"ARG_OF_PERICENTER":86.2272,"MEAN_ANOMALY":273.8866,"EPHEMERIS_TYPE":0,"CLASSIFICATION_TYPE":"U","NORAD_CAT_ID":65356,"ELEMENT_SET_NO":999,"REV_AT_EPOCH":2172,"BSTAR":0.00053257864,"MEAN_MOTION_DOT":0.00015447,"MEAN_MOTION_DDOT":0},{"OBJECT_NAME":"STARLINK-34860","OBJECT_ID":"2025-190G","EPOCH":"2026-01-19T18:20:07.009728","MEAN_MOTION":15.30210644,"ECCENTRICITY":0.00014355,"INCLINATION":53.1598,"RA_OF_ASC_NODE":35.4947,"ARG_OF_PERICENTER":88.5686,"MEAN_ANOMALY":271.5479,"EPHEMERIS_TYPE":0,"CLASSIFICATION_TYPE":"U","NORAD_CAT_ID":65357,"ELEMENT_SET_NO":999,"REV_AT_EPOCH":2179,"BSTAR":0.00061059956,"MEAN_MOTION_DOT":0.00017774,"MEAN_MOTION_DDOT":0},{"OBJECT_NAME":"STARLINK-34782","OBJECT_ID":"2025-190H","EPOCH":"2026-01-19T08:04:07.481280","MEAN_MOTION":15.30208677,"ECCENTRICITY":0.00010694,"INCLINATION":53.1576,"RA_OF_ASC_NODE":37.0891,"ARG_OF_PERICENTER":91.9077,"MEAN_ANOMALY":268.2046,"EPHEMERIS_TYPE":0,"CLASSIFICATION_TYPE":"U","NORAD_CAT_ID":65358,"ELEMENT_SET_NO":999,"REV_AT_EPOCH":2220,"BSTAR":0.00064245667,"MEAN_MOTION_DOT":0.00018722,"MEAN_MOTION_DDOT":0},{"OBJECT_NAME":"STARLINK-34760","OBJECT_ID":"2025-190J","EPOCH":"2026-01-19T17:45:09.937440","MEAN_MOTION":15.30197459,"ECCENTRICITY":0.00013948,"INCLINATION":53.1582,"RA_OF_ASC_NODE":35.3371,"ARG_OF_PERICENTER":85.3302,"MEAN_ANOMALY":274.7858,"EPHEMERIS_TYPE":0,"CLASSIFICATION_TYPE":"U","NORAD_CAT_ID":65359,"ELEMENT_SET_NO":999,"REV_AT_EPOCH":2179,"BSTAR":0.00068251744,"MEAN_MOTION_DOT":0.00019908,"MEAN_MOTION_DDOT":0},{"OBJECT_NAME":"STARLINK-34826","OBJECT_ID":"2025-190K","EPOCH":"2026-01-19T18:32:15.143136","MEAN_MOTION":15.30254779,"ECCENTRICITY":0.00012648,"INCLINATION":53.1612,"RA_OF_ASC_NODE":35.5451,"ARG_OF_PERICENTER":90.6862,"MEAN_ANOMALY":269.4283,"EPHEMERIS_TYPE":0,"CLASSIFICATION_TYPE":"U","NORAD_CAT_ID":65360,"ELEMENT_SET_NO":999,"REV_AT_EPOCH":2179,"BSTAR":0.0016326935,"MEAN_MOTION_DOT":0.00048394,"MEAN_MOTION_DDOT":0},{"OBJECT_NAME":"STARLINK-34800","OBJECT_ID":"2025-190L","EPOCH":"2026-01-19T08:02:36.249792","MEAN_MOTION":15.302009,"ECCENTRICITY":0.00011071,"INCLINATION":53.157,"RA_OF_ASC_NODE":37.0779,"ARG_OF_PERICENTER":88.3425,"MEAN_ANOMALY":271.7703,"EPHEMERIS_TYPE":0,"CLASSIFICATION_TYPE":"U","NORAD_CAT_ID":65361,"ELEMENT_SET_NO":999,"REV_AT_EPOCH":2173,"BSTAR":0.00079107294,"MEAN_MOTION_DOT":0.00023144,"MEAN_MOTION_DDOT":0},{"OBJECT_NAME":"STARLINK-34817","OBJECT_ID":"2025-190M","EPOCH":"2026-01-19T11:03:16.608960","MEAN_MOTION":15.30203089,"ECCENTRICITY":0.00012906,"INCLINATION":53.1592,"RA_OF_ASC_NODE":37.1505,"ARG_OF_PERICENTER":87.6312,"MEAN_ANOMALY":272.4836,"EPHEMERIS_TYPE":0,"CLASSIFICATION_TYPE":"U","NORAD_CAT_ID":65362,"ELEMENT_SET_NO":999,"REV_AT_EPOCH":2221,"BSTAR":0.0010932049,"MEAN_MOTION_DOT":0.00032162,"MEAN_MOTION_DDOT":0}]
